[{"OBJECT_NAME":"PELICAN-2","OBJECT_ID":"2025-009Y","EPOCH":"2026-03-09T17:25:39.993312","MEAN_MOTION":15.4033695,"ECCENTRICITY":0.00075715,"INCLINATION":97.4014,"RA_OF_ASC_NODE":159.0326,"ARG_OF_PERICENTER":210.4407,"MEAN_ANOMALY":149.6401,"EPHEMERIS_TYPE":0,"CLASSIFICATION_TYPE":"U","NORAD_CAT_ID":62631,"ELEMENT_SET_NO":999,"REV_AT_EPOCH":6424,"BSTAR":0.0018185571,"MEAN_MOTION_DOT":0.00073958,"MEAN_MOTION_DDOT":0},{"OBJECT_NAME":"TAURUS R\/B","OBJECT_ID":"2000-014B","EPOCH":"2026-03-09T17:34:52.155840","MEAN_MOTION":15.39389421,"ECCENTRICITY":0.00149672,"INCLINATION":97.4179,"RA_OF_ASC_NODE":3.0855,"ARG_OF_PERICENTER":325.8693,"MEAN_ANOMALY":34.1589,"EPHEMERIS_TYPE":0,"CLASSIFICATION_TYPE":"U","NORAD_CAT_ID":26103,"ELEMENT_SET_NO":999,"REV_AT_EPOCH":43012,"BSTAR":0.00036037476,"MEAN_MOTION_DOT":0.0001407,"MEAN_MOTION_DDOT":0}]
